[
  {
    "name": "STARLINK-33762",
    "noradId": "63442",
    "line1": "1 63442U 25069K   26166.38489202  .00026754  00000+0  48720-3 0  9995",
    "line2": "2 63442  53.1597  43.6191 0001305  52.5711 307.5417 15.49323135 68439"
  },
  {
    "name": "STARLINK-33753",
    "noradId": "63443",
    "line1": "1 63443U 25069L   26167.25002315 -.00011954  00000+0 -33231-3 0  9998",
    "line2": "2 63443  53.1600  39.6625 0000840  88.1446 328.9224 15.35401034  5800"
  },
  {
    "name": "STARLINK-33747",
    "noradId": "63444",
    "line1": "1 63444U 25069M   26167.25002315 -.01980522  00000+0 -44130-1 0  9994",
    "line2": "2 63444  53.1597  39.9037 0001100  93.0122 201.8748 15.46384969  5902"
  },
  {
    "name": "STARLINK-33659",
    "noradId": "63445",
    "line1": "1 63445U 25069N   26166.92370679  .00049383  00000+0  88982-3 0  9992",
    "line2": "2 63445  53.1587  41.2917 0000866  70.3387 289.7716 15.49326002 68461"
  },
  {
    "name": "STARLINK-33746",
    "noradId": "63446",
    "line1": "1 63446U 25069P   26167.25002315 -.00024484  00000+0 -71606-3 0  9991",
    "line2": "2 63446  53.1606  39.7024 0001242 100.6889 294.4460 15.34391154  5800"
  },
  {
    "name": "STARLINK-33799",
    "noradId": "63447",
    "line1": "1 63447U 25069Q   26166.94130080  .00007763  00000+0  27398-3 0  9996",
    "line2": "2 63447  53.1588  46.3777 0001202  79.2537 280.8599 15.30196464 68338"
  },
  {
    "name": "STARLINK-33797",
    "noradId": "63448",
    "line1": "1 63448U 25069R   26167.25002315 -.02076690  00000+0 -54777-1 0  9999",
    "line2": "2 63448  53.1593  39.9635 0001055 122.0984 143.3532 15.41626288  5857"
  },
  {
    "name": "STARLINK-33798",
    "noradId": "63449",
    "line1": "1 63449U 25069S   26167.25002315 -.02425829  00000+0 -69888-1 0  9991",
    "line2": "2 63449  53.1592  39.9125 0000834 102.8697 180.1426 15.38956420  5909"
  },
  {
    "name": "STARLINK-33736",
    "noradId": "63450",
    "line1": "1 63450U 25069T   26167.25002315 -.01862433  00000+0 -38850-1 0  9993",
    "line2": "2 63450  53.1593  39.8668 0001263 105.4480 207.5684 15.48068631  5908"
  },
  {
    "name": "STARLINK-33740",
    "noradId": "63451",
    "line1": "1 63451U 25069U   26166.97191444  .00040310  00000+0  72893-3 0  9990",
    "line2": "2 63451  53.1593  40.8798 0001445  54.5863 305.5281 15.49315050 68414"
  },
  {
    "name": "STARLINK-33763",
    "noradId": "63452",
    "line1": "1 63452U 25069V   26167.00003472  .00021855  00000+0  65659-3 0  9994",
    "line2": "2 63452  53.1602  40.9525 0001321  80.0643 326.8741 15.34375355  5919"
  },
  {
    "name": "STARLINK-33784",
    "noradId": "63453",
    "line1": "1 63453U 25069W   26166.94024429  .00019460  00000+0  66725-3 0  9996",
    "line2": "2 63453  53.1596  46.3688 0001105  89.1311 270.9816 15.30208432 68440"
  },
  {
    "name": "STARLINK-33768",
    "noradId": "63454",
    "line1": "1 63454U 25069X   26167.25002315 -.00005044  00000+0 -13838-3 0  9994",
    "line2": "2 63454  53.1598  39.8042 0000729 100.3994 236.6228 15.34374125  5857"
  },
  {
    "name": "STARLINK-33761",
    "noradId": "63455",
    "line1": "1 63455U 25069Y   26167.25002315 -.00039956  00000+0 -11777-2 0  9993",
    "line2": "2 63455  53.1606  39.5980 0001146 102.4608 339.1912 15.34400425  5857"
  },
  {
    "name": "STARLINK-33737",
    "noradId": "63456",
    "line1": "1 63456U 25069Z   26166.94269837  .00051770  00000+0  93172-3 0  9999",
    "line2": "2 63456  53.1585  41.3912 0000434 228.8313 131.2658 15.49339710 68407"
  },
  {
    "name": "STARLINK-33795",
    "noradId": "63457",
    "line1": "1 63457U 25069AA  26166.89083075  .00058259  00000+0  10465-2 0  9994",
    "line2": "2 63457  53.1593  41.7912 0000655 103.5800 256.5282 15.49343189 68393"
  },
  {
    "name": "STARLINK-33756",
    "noradId": "63458",
    "line1": "1 63458U 25069AB  26167.25002315 -.02403897  00000+0 -67404-1 0  9994",
    "line2": "2 63458  53.1600  39.7506 0001120  78.8107 282.6775 15.39737103  5908"
  },
  {
    "name": "STARLINK-33780",
    "noradId": "63459",
    "line1": "1 63459U 25069AC  26167.25002315 -.01492583  00000+0 -35884-1 0  9991",
    "line2": "2 63459  53.1588  39.9388 0000862  58.7082 209.5631 15.43792745  5801"
  },
  {
    "name": "STARLINK-33679",
    "noradId": "63460",
    "line1": "1 63460U 25070A   26167.00003472  .00008550  00000+0  32003-3 0  9999",
    "line2": "2 63460  43.0037  64.9147 0001403 268.3813 265.4539 15.27564166  5729"
  },
  {
    "name": "STARLINK-33706",
    "noradId": "63461",
    "line1": "1 63461U 25070B   26166.18767686  .00000878  00000+0  41426-4 0  9997",
    "line2": "2 63461  43.0016  69.5154 0001442 248.5490 111.5208 15.27581239 67889"
  },
  {
    "name": "STARLINK-33691",
    "noradId": "63462",
    "line1": "1 63462U 25070C   26166.98630841  .00024012  00000+0  87879-3 0  9995",
    "line2": "2 63462  43.0060  64.3316 0001911 275.3243  84.7391 15.27597065 67964"
  },
  {
    "name": "STARLINK-33696",
    "noradId": "63463",
    "line1": "1 63463U 25070D   26167.01200751  .00022967  00000+0  84098-3 0  9991",
    "line2": "2 63463  43.0021  64.5264 0003948 278.7702  81.2702 15.27597265 68012"
  },
  {
    "name": "STARLINK-33701",
    "noradId": "63464",
    "line1": "1 63464U 25070E   26166.45307947  .00018390  00000+0  67519-3 0  9998",
    "line2": "2 63464  43.0062  68.0679 0003502 265.1806  94.8646 15.27623568 67920"
  },
  {
    "name": "STARLINK-33685",
    "noradId": "63465",
    "line1": "1 63465U 25070F   26167.02357213  .00016185  00000+0  59616-3 0  9993",
    "line2": "2 63465  42.9812  64.6133 0004148 263.4818  96.5561 15.27585321 68010"
  },
  {
    "name": "STARLINK-33654",
    "noradId": "63466",
    "line1": "1 63466U 25070G   26167.01329124  .00022666  00000+0  83027-3 0  9997",
    "line2": "2 63466  43.0107  64.5352 0000248 257.1617 102.9207 15.27595393 68015"
  },
  {
    "name": "STARLINK-33697",
    "noradId": "63467",
    "line1": "1 63467U 25070H   26167.01586584  .00022891  00000+0  83844-3 0  9990",
    "line2": "2 63467  43.0110  64.5673 0000258 300.1071  59.9755 15.27594521 68011"
  },
  {
    "name": "STARLINK-33720",
    "noradId": "63468",
    "line1": "1 63468U 25070J   26167.01714864  .00015456  00000+0  56987-3 0  9992",
    "line2": "2 63468  42.9899  64.5617 0003770 277.8441  82.1983 15.27583690 68011"
  },
  {
    "name": "STARLINK-33587",
    "noradId": "63469",
    "line1": "1 63469U 25070K   26167.00172952  .00015760  00000+0  58061-3 0  9991",
    "line2": "2 63469  43.0043  64.4426 0000446 156.2933 203.7939 15.27603153 68014"
  },
  {
    "name": "STARLINK-33637",
    "noradId": "63470",
    "line1": "1 63470U 25070L   26166.45692826  .00017627  00000+0  64782-3 0  9999",
    "line2": "2 63470  43.0098  68.0990 0003688 277.9792  82.0641 15.27613426 67928"
  },
  {
    "name": "STARLINK-33744",
    "noradId": "63471",
    "line1": "1 63471U 25070M   26166.44150118  .00021886  00000+0  80183-3 0  9997",
    "line2": "2 63471  43.0089  67.9782 0005067 265.6788  94.3485 15.27597891 67927"
  }
]