OBJECT_NAME,OBJECT_ID,EPOCH,MEAN_MOTION,ECCENTRICITY,INCLINATION,RA_OF_ASC_NODE,ARG_OF_PERICENTER,MEAN_ANOMALY,EPHEMERIS_TYPE,CLASSIFICATION_TYPE,NORAD_CAT_ID,ELEMENT_SET_NO,REV_AT_EPOCH,BSTAR,MEAN_MOTION_DOT,MEAN_MOTION_DDOT
STARLINK-33762,2025-069K,2026-06-15T09:14:14.670528,15.49323135,.00013054,53.1597,43.6191,52.5711,307.5417,0,U,63442,999,6843,.48719709E-3,.26754E-3,0
STARLINK-33753,2025-069L,2026-06-16T06:00:02.000160,15.35401034,.00008404,53.1600,39.6625,88.1446,328.9224,0,U,63443,999,580,-.33231497E-3,-.11954E-3,0
STARLINK-33747,2025-069M,2026-06-16T06:00:02.000160,15.46384969,.00011008,53.1597,39.9037,93.0122,201.8748,0,U,63444,999,590,-.44130228E-1,-.1980522E-1,0
STARLINK-33659,2025-069N,2026-06-15T22:10:08.266656,15.49326002,.0000866,53.1587,41.2917,70.3387,289.7716,0,U,63445,999,6846,.88982E-3,.49383E-3,0
STARLINK-33746,2025-069P,2026-06-16T06:00:02.000160,15.34391154,.00012429,53.1606,39.7024,100.6889,294.4460,0,U,63446,999,580,-.71605528E-3,-.24484E-3,0
STARLINK-33799,2025-069Q,2026-06-15T22:35:28.389120,15.30196464,.0001202,53.1588,46.3777,79.2537,280.8599,0,U,63447,999,6833,.27398E-3,.7763E-4,0
STARLINK-33797,2025-069R,2026-06-16T06:00:02.000160,15.41626288,.00010551,53.1593,39.9635,122.0984,143.3532,0,U,63448,999,585,-.54776722E-1,-.207669E-1,0
STARLINK-33798,2025-069S,2026-06-16T06:00:02.000160,15.38956420,.00008344,53.1592,39.9125,102.8697,180.1426,0,U,63449,999,590,-.69888392E-1,-.2425829E-1,0
STARLINK-33736,2025-069T,2026-06-16T06:00:02.000160,15.48068631,.00012632,53.1593,39.8668,105.4480,207.5684,0,U,63450,999,590,-.38849863E-1,-.1862433E-1,0
STARLINK-33740,2025-069U,2026-06-15T23:19:33.407616,15.49315050,.00014451,53.1593,40.8798,54.5863,305.5281,0,U,63451,999,6841,.72892585E-3,.4031E-3,0
STARLINK-33763,2025-069V,2026-06-16T00:00:02.999808,15.34375355,.0001321,53.1602,40.9525,80.0643,326.8741,0,U,63452,999,591,.6565864E-3,.21855E-3,0
STARLINK-33784,2025-069W,2026-06-15T22:33:57.106656,15.30208432,.0001105,53.1596,46.3688,89.1311,270.9816,0,U,63453,999,6844,.66725E-3,.1946E-3,0
STARLINK-33768,2025-069X,2026-06-16T06:00:02.000160,15.34374125,.00007296,53.1598,39.8042,100.3994,236.6228,0,U,63454,999,585,-.13838344E-3,-.5044E-4,0
STARLINK-33761,2025-069Y,2026-06-16T06:00:02.000160,15.34400425,.00011469,53.1606,39.5980,102.4608,339.1912,0,U,63455,999,585,-.11776604E-2,-.39956E-3,0
STARLINK-33737,2025-069Z,2026-06-15T22:37:29.139168,15.49339710,.0000434,53.1585,41.3912,228.8313,131.2658,0,U,63456,999,6840,.93172E-3,.5177E-3,0
STARLINK-33795,2025-069AA,2026-06-15T21:22:47.776800,15.49343189,.0000655,53.1593,41.7912,103.5800,256.5282,0,U,63457,999,6839,.10465E-2,.58259E-3,0
STARLINK-33756,2025-069AB,2026-06-16T06:00:02.000160,15.39737103,.00011202,53.1600,39.7506,78.8107,282.6775,0,U,63458,999,590,-.6740373E-1,-.2403897E-1,0
STARLINK-33780,2025-069AC,2026-06-16T06:00:02.000160,15.43792745,.00008626,53.1588,39.9388,58.7082,209.5631,0,U,63459,999,580,-.35884213E-1,-.1492583E-1,0
STARLINK-33679,2025-070A,2026-06-16T00:00:02.999808,15.27564166,.00014032,43.0037,64.9147,268.3813,265.4539,0,U,63460,999,572,.32003146E-3,.855E-4,0
STARLINK-33706,2025-070B,2026-06-15T04:30:15.280704,15.27581239,.00014425,43.0016,69.5154,248.5490,111.5208,0,U,63461,999,6788,.41426473E-4,.878E-5,0
STARLINK-33691,2025-070C,2026-06-15T23:40:17.046624,15.27597065,.00019111,43.0060,64.3316,275.3243,84.7391,0,U,63462,999,6796,.87879482E-3,.24012E-3,0
STARLINK-33696,2025-070D,2026-06-16T00:17:17.448864,15.27597265,.00039488,43.0021,64.5264,278.7702,81.2702,0,U,63463,999,6801,.84097652E-3,.22967E-3,0
STARLINK-33701,2025-070E,2026-06-15T10:52:26.066208,15.27623568,.00035022,43.0062,68.0679,265.1806,94.8646,0,U,63464,999,6792,.6751913E-3,.1839E-3,0
STARLINK-33685,2025-070F,2026-06-16T00:33:56.632032,15.27585321,.00041485,42.9812,64.6133,263.4818,96.5561,0,U,63465,999,6801,.59616095E-3,.16185E-3,0
STARLINK-33654,2025-070G,2026-06-16T00:19:08.363136,15.27595393,.00002489,43.0107,64.5352,257.1617,102.9207,0,U,63466,999,6801,.83026652E-3,.22666E-3,0
STARLINK-33697,2025-070H,2026-06-16T00:22:50.808576,15.27594521,.00002589,43.0110,64.5673,300.1071,59.9755,0,U,63467,999,6801,.83843979E-3,.22891E-3,0
STARLINK-33720,2025-070J,2026-06-16T00:24:41.642496,15.27583690,.00037702,42.9899,64.5617,277.8441,82.1983,0,U,63468,999,6801,.56987048E-3,.15456E-3,0
STARLINK-33587,2025-070K,2026-06-16T00:02:29.430528,15.27603153,.00004467,43.0043,64.4426,156.2933,203.7939,0,U,63469,999,6801,.58060557E-3,.1576E-3,0
STARLINK-33637,2025-070L,2026-06-15T10:57:58.601664,15.27613426,.00036881,43.0098,68.0990,277.9792,82.0641,0,U,63470,999,6792,.6478233E-3,.17627E-3,0
STARLINK-33744,2025-070M,2026-06-15T10:35:45.701952,15.27597891,.00050673,43.0089,67.9782,265.6788,94.3485,0,U,63471,999,6792,.80182747E-3,.21886E-3,0
